{
  "type": "FeatureCollection",
  "features": [
    {
      "type": "Feature",
      "properties": {
        "norad_id": 2807,
        "name": "OPS 7218 (TRANSIT 16)",
        "group": "nnss",
        "lat": -89.0956262373228,
        "lon": -165.06127061637372,
        "alt_km": 1093.5663691701493,
        "timestamp": "2025-12-21T03:56:51.105467+00:00",
        "meta_object_name": "OPS 7218 (TRANSIT 16)",
        "meta_object_id": "1967-048A",
        "meta_epoch": "2025-12-20T13:00:34.079040",
        "meta_mean_motion": 13.50723861,
        "meta_eccentricity": 0.0022146,
        "meta_inclination": 89.6731,
        "meta_ra_of_asc_node": 353.7574,
        "meta_arg_of_pericenter": 93.2861,
        "meta_mean_anomaly": 31.0798,
        "meta_ephemeris_type": 0,
        "meta_classification_type": "U",
        "meta_norad_cat_id": 2807,
        "meta_element_set_no": 999,
        "meta_rev_at_epoch": 88381,
        "meta_bstar": 0.00014697,
        "meta_mean_motion_dot": 1.05e-06,
        "meta_mean_motion_ddot": 0,
        "tle_line1": "1 02807U 67048A   25354.54206110  .00000105  00000+0  14697-3 0  9995",
        "tle_line2": "2 02807  89.6731 353.7574 0022146  93.2861  31.0798 13.50723861883813"
      },
      "geometry": {
        "type": "Point",
        "coordinates": [
          -165.06127061637372,
          -89.0956262373228
        ]
      }
    },
    {
      "type": "Feature",
      "properties": {
        "norad_id": 2965,
        "name": "OPS 4947 (TRANSIT 17)",
        "group": "nnss",
        "lat": 56.06872988506477,
        "lon": 24.910526487252064,
        "alt_km": 1085.327303764342,
        "timestamp": "2025-12-21T03:56:51.105487+00:00",
        "meta_object_name": "OPS 4947 (TRANSIT 17)",
        "meta_object_id": "1967-092A",
        "meta_epoch": "2025-12-20T19:39:31.567104",
        "meta_mean_motion": 13.53455563,
        "meta_eccentricity": 0.004675,
        "meta_inclination": 89.2487,
        "meta_ra_of_asc_node": 23.8193,
        "meta_arg_of_pericenter": 210.4496,
        "meta_mean_anomaly": 324.1597,
        "meta_ephemeris_type": 0,
        "meta_classification_type": "U",
        "meta_norad_cat_id": 2965,
        "meta_element_set_no": 999,
        "meta_rev_at_epoch": 87206,
        "meta_bstar": 0.00018418,
        "meta_mean_motion_dot": 1.36e-06,
        "meta_mean_motion_ddot": 0,
        "tle_line1": "1 02965U 67092A   25354.81911536  .00000136  00000+0  18418-3 0  9993",
        "tle_line2": "2 02965  89.2487  23.8193 0046750 210.4496 324.1597 13.53455563872060"
      },
      "geometry": {
        "type": "Point",
        "coordinates": [
          24.910526487252064,
          56.06872988506477
        ]
      }
    },
    {
      "type": "Feature",
      "properties": {
        "norad_id": 3133,
        "name": "OPS 7034 (TRANSIT 18)",
        "group": "nnss",
        "lat": 31.491113029923554,
        "lon": 93.68022576762002,
        "alt_km": 1009.2805347061085,
        "timestamp": "2025-12-21T03:56:51.105498+00:00",
        "meta_object_name": "OPS 7034 (TRANSIT 18)",
        "meta_object_id": "1968-012A",
        "meta_epoch": "2025-12-20T18:36:05.578848",
        "meta_mean_motion": 13.51567467,
        "meta_eccentricity": 0.0074622,
        "meta_inclination": 90.0284,
        "meta_ra_of_asc_node": 273.6617,
        "meta_arg_of_pericenter": 145.9806,
        "meta_mean_anomaly": 268.7524,
        "meta_ephemeris_type": 0,
        "meta_classification_type": "U",
        "meta_norad_cat_id": 3133,
        "meta_element_set_no": 999,
        "meta_rev_at_epoch": 57027,
        "meta_bstar": 0.000159,
        "meta_mean_motion_dot": 1.15e-06,
        "meta_mean_motion_ddot": 0,
        "tle_line1": "1 03133U 68012A   25354.77506457  .00000115  00000+0  15900-3 0  9991",
        "tle_line2": "2 03133  90.0284 273.6617 0074622 145.9806 268.7524 13.51567467570271"
      },
      "geometry": {
        "type": "Point",
        "coordinates": [
          93.68022576762002,
          31.491113029923554
        ]
      }
    },
    {
      "type": "Feature",
      "properties": {
        "norad_id": 4507,
        "name": "NNSS 19 (TRANSIT 19)",
        "group": "nnss",
        "lat": 68.50244390244184,
        "lon": 54.55253575716999,
        "alt_km": 1177.4694029154152,
        "timestamp": "2025-12-21T03:56:51.105509+00:00",
        "meta_object_name": "NNSS 19 (TRANSIT 19)",
        "meta_object_id": "1970-067A",
        "meta_epoch": "2025-12-20T14:56:41.152992",
        "meta_mean_motion": 13.51316588,
        "meta_eccentricity": 0.0170239,
        "meta_inclination": 90.0051,
        "meta_ra_of_asc_node": 234.5393,
        "meta_arg_of_pericenter": 270.3112,
        "meta_mean_anomaly": 87.8534,
        "meta_ephemeris_type": 0,
        "meta_classification_type": "U",
        "meta_norad_cat_id": 4507,
        "meta_element_set_no": 999,
        "meta_rev_at_epoch": 72328,
        "meta_bstar": 0.00013508,
        "meta_mean_motion_dot": 1.04e-06,
        "meta_mean_motion_ddot": 0,
        "tle_line1": "1 04507U 70067A   25354.62269853  .00000104  00000+0  13508-3 0  9990",
        "tle_line2": "2 04507  90.0051 234.5393 0170239 270.3112  87.8534 13.51316588723288"
      },
      "geometry": {
        "type": "Point",
        "coordinates": [
          54.55253575716999,
          68.50244390244184
        ]
      }
    },
    {
      "type": "Feature",
      "properties": {
        "norad_id": 6909,
        "name": "NNSS 20 (TRANSIT 20)",
        "group": "nnss",
        "lat": 74.88333045785095,
        "lon": -104.53944648160724,
        "alt_km": 879.8921753411942,
        "timestamp": "2025-12-21T03:56:51.105519+00:00",
        "meta_object_name": "NNSS 20 (TRANSIT 20)",
        "meta_object_id": "1973-081A",
        "meta_epoch": "2025-12-20T18:50:19.223808",
        "meta_mean_motion": 13.71438181,
        "meta_eccentricity": 0.0156401,
        "meta_inclination": 89.8562,
        "meta_ra_of_asc_node": 254.9336,
        "meta_arg_of_pericenter": 54.4896,
        "meta_mean_anomaly": 307.0741,
        "meta_ephemeris_type": 0,
        "meta_classification_type": "U",
        "meta_norad_cat_id": 6909,
        "meta_element_set_no": 999,
        "meta_rev_at_epoch": 80471,
        "meta_bstar": 0.00023365,
        "meta_mean_motion_dot": 2.41e-06,
        "meta_mean_motion_ddot": 0,
        "tle_line1": "1 06909U 73081A   25354.78494472  .00000241  00000+0  23365-3 0  9995",
        "tle_line2": "2 06909  89.8562 254.9336 0156401  54.4896 307.0741 13.71438181804718"
      },
      "geometry": {
        "type": "Point",
        "coordinates": [
          -104.53944648160724,
          74.88333045785095
        ]
      }
    },
    {
      "type": "Feature",
      "properties": {
        "norad_id": 10457,
        "name": "TRANSAT",
        "group": "nnss",
        "lat": 45.058781497957895,
        "lon": 78.65176716257704,
        "alt_km": 1082.0787363222507,
        "timestamp": "2025-12-21T03:56:51.105529+00:00",
        "meta_object_name": "TRANSAT",
        "meta_object_id": "1977-106A",
        "meta_epoch": "2025-12-20T04:51:30.137760",
        "meta_mean_motion": 13.48944672,
        "meta_eccentricity": 0.00261,
        "meta_inclination": 89.648,
        "meta_ra_of_asc_node": 78.3329,
        "meta_arg_of_pericenter": 168.1289,
        "meta_mean_anomaly": 248.1407,
        "meta_ephemeris_type": 0,
        "meta_classification_type": "U",
        "meta_norad_cat_id": 10457,
        "meta_element_set_no": 999,
        "meta_rev_at_epoch": 36844,
        "meta_bstar": 0.00011685506,
        "meta_mean_motion_dot": 8.4e-07,
        "meta_mean_motion_ddot": 0,
        "tle_line1": "1 10457U 77106A   25354.20243215  .00000084  00000+0  11686-3 0  9992",
        "tle_line2": "2 10457  89.6480  78.3329 0026100 168.1289 248.1407 13.48944672368449"
      },
      "geometry": {
        "type": "Point",
        "coordinates": [
          78.65176716257704,
          45.058781497957895
        ]
      }
    },
    {
      "type": "Feature",
      "properties": {
        "norad_id": 12458,
        "name": "NOVA 1",
        "group": "nnss",
        "lat": -69.66700586181261,
        "lon": -88.3361050603068,
        "alt_km": 1191.2307376480321,
        "timestamp": "2025-12-21T03:56:51.105539+00:00",
        "meta_object_name": "NOVA 1",
        "meta_object_id": "1981-044A",
        "meta_epoch": "2025-12-20T18:13:37.876224",
        "meta_mean_motion": 13.23279176,
        "meta_eccentricity": 0.0015854,
        "meta_inclination": 89.8527,
        "meta_ra_of_asc_node": 91.2719,
        "meta_arg_of_pericenter": 84.2987,
        "meta_mean_anomaly": 36.9916,
        "meta_ephemeris_type": 0,
        "meta_classification_type": "U",
        "meta_norad_cat_id": 12458,
        "meta_element_set_no": 999,
        "meta_rev_at_epoch": 15292,
        "meta_bstar": 8.1809e-05,
        "meta_mean_motion_dot": 4.4e-07,
        "meta_mean_motion_ddot": 0,
        "tle_line1": "1 12458U 81044A   25354.75946616  .00000044  00000+0  81809-4 0  9997",
        "tle_line2": "2 12458  89.8527  91.2719 0015854  84.2987  36.9916 13.23279176152925"
      },
      "geometry": {
        "type": "Point",
        "coordinates": [
          -88.3361050603068,
          -69.66700586181261
        ]
      }
    }
  ]
}